{
  "type": "FeatureCollection",
  "features": [
    {
      "type": "Feature",
      "properties": {
        "norad_id": 30806,
        "name": "FENGYUN 1C DEB",
        "group": "fengyun-1c-debris",
        "lat": -40.83567175326064,
        "lon": 30.278493092080105,
        "alt_km": 1167.4634515305243,
        "timestamp": "2025-12-22T09:53:37.680251+00:00",
        "meta_object_name": "FENGYUN 1C DEB",
        "meta_object_id": "1999-025AUQ",
        "meta_epoch": "2025-12-21T01:04:51.239136",
        "meta_mean_motion": 13.70431377,
        "meta_eccentricity": 0.02680834,
        "meta_inclination": 99.0352,
        "meta_ra_of_asc_node": 21.0883,
        "meta_arg_of_pericenter": 108.5793,
        "meta_mean_anomaly": 310.1966,
        "meta_ephemeris_type": 0,
        "meta_classification_type": "U",
        "meta_norad_cat_id": 30806,
        "meta_element_set_no": 999,
        "meta_rev_at_epoch": 93809,
        "meta_bstar": 0.00059263332,
        "meta_mean_motion_dot": 6.37e-06,
        "meta_mean_motion_ddot": 0,
        "tle_line1": "1 30806U 99025AUQ 25355.04503749  .00000637  00000+0  59263-3 0  9997",
        "tle_line2": "2 30806  99.0352  21.0883 0268083 108.5793 310.1966 13.70431377938090"
      },
      "geometry": {
        "type": "Point",
        "coordinates": [
          30.278493092080105,
          -40.83567175326064
        ]
      }
    },
    {
      "type": "Feature",
      "properties": {
        "norad_id": 30809,
        "name": "FENGYUN 1C DEB",
        "group": "fengyun-1c-debris",
        "lat": 16.32167391203739,
        "lon": 82.93838897355643,
        "alt_km": 817.4633394961456,
        "timestamp": "2025-12-22T09:53:37.680261+00:00",
        "meta_object_name": "FENGYUN 1C DEB",
        "meta_object_id": "1999-025AUT",
        "meta_epoch": "2025-12-21T22:03:19.694016",
        "meta_mean_motion": 14.29303601,
        "meta_eccentricity": 0.0052243,
        "meta_inclination": 98.789,
        "meta_ra_of_asc_node": 85.0377,
        "meta_arg_of_pericenter": 145.8511,
        "meta_mean_anomaly": 214.6049,
        "meta_ephemeris_type": 0,
        "meta_classification_type": "U",
        "meta_norad_cat_id": 30809,
        "meta_element_set_no": 999,
        "meta_rev_at_epoch": 97218,
        "meta_bstar": 0.0016273,
        "meta_mean_motion_dot": 4.16e-05,
        "meta_mean_motion_ddot": 0,
        "tle_line1": "1 30809U 99025AUT 25355.91897794  .00004160  00000+0  16273-2 0  9990",
        "tle_line2": "2 30809  98.7890  85.0377 0052243 145.8511 214.6049 14.29303601972186"
      },
      "geometry": {
        "type": "Point",
        "coordinates": [
          82.93838897355643,
          16.32167391203739
        ]
      }
    },
    {
      "type": "Feature",
      "properties": {
        "norad_id": 30810,
        "name": "FENGYUN 1C DEB",
        "group": "fengyun-1c-debris",
        "lat": -69.27549666081194,
        "lon": -35.8439727078691,
        "alt_km": 980.1730212112507,
        "timestamp": "2025-12-22T09:53:37.680271+00:00",
        "meta_object_name": "FENGYUN 1C DEB",
        "meta_object_id": "1999-025AUU",
        "meta_epoch": "2025-12-20T10:31:40.827072",
        "meta_mean_motion": 14.04214076,
        "meta_eccentricity": 0.01798644,
        "meta_inclination": 98.6612,
        "meta_ra_of_asc_node": 166.0301,
        "meta_arg_of_pericenter": 33.2159,
        "meta_mean_anomaly": 328.0148,
        "meta_ephemeris_type": 0,
        "meta_classification_type": "U",
        "meta_norad_cat_id": 30810,
        "meta_element_set_no": 999,
        "meta_rev_at_epoch": 94491,
        "meta_bstar": 0.002052949,
        "meta_mean_motion_dot": 3.724e-05,
        "meta_mean_motion_ddot": 0,
        "tle_line1": "1 30810U 99025AUU 25354.43866698  .00003724  00000+0  20529-2 0  9991",
        "tle_line2": "2 30810  98.6612 166.0301 0179864  33.2159 328.0148 14.04214076944913"
      },
      "geometry": {
        "type": "Point",
        "coordinates": [
          -35.8439727078691,
          -69.27549666081194
        ]
      }
    },
    {
      "type": "Feature",
      "properties": {
        "norad_id": 30811,
        "name": "FENGYUN 1C DEB",
        "group": "fengyun-1c-debris",
        "lat": 31.167418983602484,
        "lon": -139.81641141015803,
        "alt_km": 1148.6247199932295,
        "timestamp": "2025-12-22T09:53:37.680283+00:00",
        "meta_object_name": "FENGYUN 1C DEB",
        "meta_object_id": "1999-025AUV",
        "meta_epoch": "2025-12-22T02:07:59.435904",
        "meta_mean_motion": 13.61870689,
        "meta_eccentricity": 0.0277978,
        "meta_inclination": 98.7814,
        "meta_ra_of_asc_node": 34.5277,
        "meta_arg_of_pericenter": 21.7209,
        "meta_mean_anomaly": 339.5458,
        "meta_ephemeris_type": 0,
        "meta_classification_type": "U",
        "meta_norad_cat_id": 30811,
        "meta_element_set_no": 999,
        "meta_rev_at_epoch": 92994,
        "meta_bstar": 0.0016486,
        "meta_mean_motion_dot": 1.603e-05,
        "meta_mean_motion_ddot": 0,
        "tle_line1": "1 30811U 99025AUV 25356.08888236  .00001603  00000+0  16486-2 0  9998",
        "tle_line2": "2 30811  98.7814  34.5277 0277978  21.7209 339.5458 13.61870689929940"
      },
      "geometry": {
        "type": "Point",
        "coordinates": [
          -139.81641141015803,
          31.167418983602484
        ]
      }
    },
    {
      "type": "Feature",
      "properties": {
        "norad_id": 30814,
        "name": "FENGYUN 1C DEB",
        "group": "fengyun-1c-debris",
        "lat": 30.107770272230198,
        "lon": -31.588265178195186,
        "alt_km": 710.7453990297936,
        "timestamp": "2025-12-22T09:53:37.680293+00:00",
        "meta_object_name": "FENGYUN 1C DEB",
        "meta_object_id": "1999-025AUY",
        "meta_epoch": "2025-12-21T22:32:56.694912",
        "meta_mean_motion": 14.60638958,
        "meta_eccentricity": 0.0030411,
        "meta_inclination": 99.0822,
        "meta_ra_of_asc_node": 333.216,
        "meta_arg_of_pericenter": 203.3091,
        "meta_mean_anomaly": 223.2203,
        "meta_ephemeris_type": 0,
        "meta_classification_type": "U",
        "meta_norad_cat_id": 30814,
        "meta_element_set_no": 999,
        "meta_rev_at_epoch": 97876,
        "meta_bstar": 0.0024749,
        "meta_mean_motion_dot": 0.00012085,
        "meta_mean_motion_ddot": 0,
        "tle_line1": "1 30814U 99025AUY 25355.93954508  .00012085  00000+0  24749-2 0  9997",
        "tle_line2": "2 30814  99.0822 333.2160 0030411 203.3091 223.2203 14.60638958978764"
      },
      "geometry": {
        "type": "Point",
        "coordinates": [
          -31.588265178195186,
          30.107770272230198
        ]
      }
    },
    {
      "type": "Feature",
      "properties": {
        "norad_id": 30815,
        "name": "FENGYUN 1C DEB",
        "group": "fengyun-1c-debris",
        "lat": 24.710811607728612,
        "lon": -21.94660325381069,
        "alt_km": 648.4477478331191,
        "timestamp": "2025-12-22T09:53:37.680303+00:00",
        "meta_object_name": "FENGYUN 1C DEB",
        "meta_object_id": "1999-025AUZ",
        "meta_epoch": "2025-12-22T00:00:14.649120",
        "meta_mean_motion": 14.73969877,
        "meta_eccentricity": 0.0002892,
        "meta_inclination": 99.2998,
        "meta_ra_of_asc_node": 153.2568,
        "meta_arg_of_pericenter": 269.2255,
        "meta_mean_anomaly": 220.3187,
        "meta_ephemeris_type": 0,
        "meta_classification_type": "U",
        "meta_norad_cat_id": 30815,
        "meta_element_set_no": 999,
        "meta_rev_at_epoch": 97916,
        "meta_bstar": 0.0039771,
        "meta_mean_motion_dot": 0.0002616,
        "meta_mean_motion_ddot": 0,
        "tle_line1": "1 30815U 99025AUZ 25356.00016955  .00026160  00000+0  39771-2 0  9992",
        "tle_line2": "2 30815  99.2998 153.2568 0002892 269.2255 220.3187 14.73969877979163"
      },
      "geometry": {
        "type": "Point",
        "coordinates": [
          -21.94660325381069,
          24.710811607728612
        ]
      }
    },
    {
      "type": "Feature",
      "properties": {
        "norad_id": 30816,
        "name": "FENGYUN 1C DEB",
        "group": "fengyun-1c-debris",
        "lat": -6.985578834658327,
        "lon": 68.03181274408614,
        "alt_km": 804.7931196308,
        "timestamp": "2025-12-22T09:53:37.680313+00:00",
        "meta_object_name": "FENGYUN 1C DEB",
        "meta_object_id": "1999-025AVA",
        "meta_epoch": "2025-12-21T17:34:09.647040",
        "meta_mean_motion": 14.18060149,
        "meta_eccentricity": 0.0051777,
        "meta_inclination": 98.9138,
        "meta_ra_of_asc_node": 66.2472,
        "meta_arg_of_pericenter": 29.3431,
        "meta_mean_anomaly": 93.6158,
        "meta_ephemeris_type": 0,
        "meta_classification_type": "U",
        "meta_norad_cat_id": 30816,
        "meta_element_set_no": 999,
        "meta_rev_at_epoch": 96521,
        "meta_bstar": 0.0012529,
        "meta_mean_motion_dot": 2.558e-05,
        "meta_mean_motion_ddot": 0,
        "tle_line1": "1 30816U 99025AVA 25355.73205610  .00002558  00000+0  12529-2 0  9997",
        "tle_line2": "2 30816  98.9138  66.2472 0051777  29.3431  93.6158 14.18060149965213"
      },
      "geometry": {
        "type": "Point",
        "coordinates": [
          68.03181274408614,
          -6.985578834658327
        ]
      }
    }
  ]
}